[{"OBJECT_NAME":"STARLINK-32427","OBJECT_ID":"2024-202D","EPOCH":"2026-03-09T22:00:01.999584","MEAN_MOTION":15.27532583,"ECCENTRICITY":0.00017071,"INCLINATION":43.0006,"RA_OF_ASC_NODE":225.6114,"ARG_OF_PERICENTER":288.1182,"MEAN_ANOMALY":323.4589,"EPHEMERIS_TYPE":0,"CLASSIFICATION_TYPE":"U","NORAD_CAT_ID":61848,"ELEMENT_SET_NO":999,"REV_AT_EPOCH":580,"BSTAR":0.002674787,"MEAN_MOTION_DOT":0.00073977,"MEAN_MOTION_DDOT":0},{"OBJECT_NAME":"KUIPER-00184","OBJECT_ID":"2025-301G","EPOCH":"2026-03-09T22:00:01.999584","MEAN_MOTION":15.32782365,"ECCENTRICITY":0.00116958,"INCLINATION":51.8667,"RA_OF_ASC_NODE":64.5953,"ARG_OF_PERICENTER":53.2996,"MEAN_ANOMALY":333.7065,"EPHEMERIS_TYPE":0,"CLASSIFICATION_TYPE":"U","NORAD_CAT_ID":67139,"ELEMENT_SET_NO":999,"REV_AT_EPOCH":554,"BSTAR":-0.036844053,"MEAN_MOTION_DOT":-0.01088594,"MEAN_MOTION_DDOT":0}]
